{
    "links": {
        "self": "http://www.neowsapp.com/rest/v1/neo/3774033?api_key=iIulBulltgU6a56xZRHN4H3l9WmuAYTsLGpBGhQ2"
    },
    "id": "3774033",
    "neo_reference_id": "3774033",
    "name": "(2017 FW158)",
    "designation": "2017 FW158",
    "nasa_jpl_url": "http://ssd.jpl.nasa.gov/sbdb.cgi?sstr=3774033",
    "absolute_magnitude_h": 28.371,
    "estimated_diameter": {
        "kilometers": {
            "estimated_diameter_min": 0.0056280115,
            "estimated_diameter_max": 0.0125846163
        },
        "meters": {
            "estimated_diameter_min": 5.6280115055,
            "estimated_diameter_max": 12.5846163045
        },
        "miles": {
            "estimated_diameter_min": 0.0034970831,
            "estimated_diameter_max": 0.0078197156
        },
        "feet": {
            "estimated_diameter_min": 18.4646052678,
            "estimated_diameter_max": 41.2881125566
        }
    },
    "is_potentially_hazardous_asteroid": false,
    "close_approach_data": [
        {
            "close_approach_date": "2017-01-31",
            "close_approach_date_full": "2017-Jan-31 07:33",
            "epoch_date_close_approach": 1485847980000,
            "relative_velocity": {
                "kilometers_per_second": "11.4298688889",
                "kilometers_per_hour": "41147.5279999133",
                "miles_per_hour": "25567.4737175017"
            },
            "miss_distance": {
                "astronomical": "0.134897571",
                "lunar": "52.475155119",
                "kilometers": "20180389.28977377",
                "miles": "12539512.439747226"
            },
            "orbiting_body": "Venus"
        },
        {
            "close_approach_date": "2017-03-17",
            "close_approach_date_full": "2017-Mar-17 14:10",
            "epoch_date_close_approach": 1489759800000,
            "relative_velocity": {
                "kilometers_per_second": "15.4122764428",
                "kilometers_per_hour": "55484.1951939518",
                "miles_per_hour": "34475.7211748197"
            },
            "miss_distance": {
                "astronomical": "0.000815137",
                "lunar": "0.317088293",
                "kilometers": "121942.75895819",
                "miles": "75771.716835422"
            },
            "orbiting_body": "Earth"
        },
        {
            "close_approach_date": "2017-03-17",
            "close_approach_date_full": "2017-Mar-17 19:28",
            "epoch_date_close_approach": 1489778880000,
            "relative_velocity": {
                "kilometers_per_second": "15.9394033292",
                "kilometers_per_hour": "57381.8519851175",
                "miles_per_hour": "35654.8513070859"
            },
            "miss_distance": {
                "astronomical": "0.0010396176",
                "lunar": "0.4044112464",
                "kilometers": "155524.578574512",
                "miles": "96638.4919397856"
            },
            "orbiting_body": "Moon"
        }
    ],
    "orbital_data": {
        "orbit_id": "1",
        "orbit_determination_date": "2017-04-22 06:18:26",
        "first_observation_date": "2017-03-19",
        "last_observation_date": "2017-03-21",
        "data_arc_in_days": 2,
        "observations_used": 16,
        "orbit_uncertainty": "8",
        "minimum_orbit_intersection": ".000303265",
        "jupiter_tisserand_invariant": "3.215",
        "epoch_osculation": "2457832.5",
        "eccentricity": ".6641135568688514",
        "semi_major_axis": "2.355744875491603",
        "inclination": ".08025640915464785",
        "ascending_node_longitude": "9.568168293599895",
        "orbital_period": "1320.659347056852",
        "perihelion_distance": ".7912627671533051",
        "perihelion_argument": "106.5587933719337",
        "aphelion_distance": "3.920226983829902",
        "perihelion_time": "2457790.510078807209",
        "mean_anomaly": "11.4460793111352",
        "mean_motion": ".2725911120095246",
        "equinox": "J2000",
        "orbit_class": {
            "orbit_class_type": "APO",
            "orbit_class_description": "Near-Earth asteroid orbits which cross the Earth’s orbit similar to that of 1862 Apollo",
            "orbit_class_range": "a (semi-major axis) > 1.0 AU; q (perihelion) < 1.017 AU"
        }
    },
    "is_sentry_object": false
}